{
  "links" : {
    "next" : "https://api.nasa.gov/neo/rest/v1/feed?start_date=2003-05-09&end_date=2003-05-09&detailed=true&api_key=t0TVs3DtDT2H8Oy2Zy8m2eVrNsAVKAexjcZXUckd",
    "prev" : "https://api.nasa.gov/neo/rest/v1/feed?start_date=2003-05-07&end_date=2003-05-07&detailed=true&api_key=t0TVs3DtDT2H8Oy2Zy8m2eVrNsAVKAexjcZXUckd",
    "self" : "https://api.nasa.gov/neo/rest/v1/feed?start_date=2003-05-08&end_date=2003-05-08&detailed=true&api_key=t0TVs3DtDT2H8Oy2Zy8m2eVrNsAVKAexjcZXUckd"
  },
  "element_count" : 4,
  "near_earth_objects" : {
    "2003-05-08" : [ {
      "links" : {
        "self" : "https://api.nasa.gov/neo/rest/v1/neo/3166087?api_key=t0TVs3DtDT2H8Oy2Zy8m2eVrNsAVKAexjcZXUckd"
      },
      "neo_reference_id" : "3166087",
      "name" : "(2003 WE)",
      "nasa_jpl_url" : "http://ssd.jpl.nasa.gov/sbdb.cgi?sstr=3166087",
      "absolute_magnitude_h" : 24.6,
      "estimated_diameter" : {
        "kilometers" : {
          "estimated_diameter_min" : 0.0319561887,
          "estimated_diameter_max" : 0.0714562102
        },
        "meters" : {
          "estimated_diameter_min" : 31.9561886721,
          "estimated_diameter_max" : 71.4562101727
        },
        "miles" : {
          "estimated_diameter_min" : 0.0198566489,
          "estimated_diameter_max" : 0.0444008168
        },
        "feet" : {
          "estimated_diameter_min" : 104.8431420431,
          "estimated_diameter_max" : 234.436392583
        }
      },
      "is_potentially_hazardous_asteroid" : false,
      "close_approach_data" : [ {
        "close_approach_date" : "2003-05-08",
        "epoch_date_close_approach" : 1052377200000,
        "relative_velocity" : {
          "kilometers_per_second" : "5.9616273727",
          "kilometers_per_hour" : "21461.8585416897",
          "miles_per_hour" : "13335.5642699738"
        },
        "miss_distance" : {
          "astronomical" : "0.3346714279",
          "lunar" : "130.1871948242",
          "kilometers" : "50066136",
          "miles" : "31109654"
        },
        "orbiting_body" : "Earth"
      } ],
      "orbital_data" : {
        "orbit_id" : "13",
        "orbit_determination_date" : "2017-04-06 09:13:33",
        "orbit_uncertainty" : "7",
        "minimum_orbit_intersection" : ".0283618",
        "jupiter_tisserand_invariant" : "5.268",
        "epoch_osculation" : "2458000.5",
        "eccentricity" : ".2416491156380611",
        "semi_major_axis" : "1.198703185567067",
        "inclination" : "5.369505070876614",
        "ascending_node_longitude" : "58.41021679937088",
        "orbital_period" : "479.3645523933826",
        "perihelion_distance" : ".9090376208622583",
        "perihelion_argument" : "285.2536101400581",
        "aphelion_distance" : "1.488368750271875",
        "perihelion_time" : "2458173.435402988087",
        "mean_anomaly" : "230.1265148520588",
        "mean_motion" : ".7509942030602462",
        "equinox" : "J2000"
      }
    }, {
      "links" : {
        "self" : "https://api.nasa.gov/neo/rest/v1/neo/3563424?api_key=t0TVs3DtDT2H8Oy2Zy8m2eVrNsAVKAexjcZXUckd"
      },
      "neo_reference_id" : "3563424",
      "name" : "(2011 GO65)",
      "nasa_jpl_url" : "http://ssd.jpl.nasa.gov/sbdb.cgi?sstr=3563424",
      "absolute_magnitude_h" : 22.9,
      "estimated_diameter" : {
        "kilometers" : {
          "estimated_diameter_min" : 0.0699125232,
          "estimated_diameter_max" : 0.1563291544
        },
        "meters" : {
          "estimated_diameter_min" : 69.9125232246,
          "estimated_diameter_max" : 156.3291544087
        },
        "miles" : {
          "estimated_diameter_min" : 0.0434416145,
          "estimated_diameter_max" : 0.097138403
        },
        "feet" : {
          "estimated_diameter_min" : 229.3718026961,
          "estimated_diameter_max" : 512.8909429502
        }
      },
      "is_potentially_hazardous_asteroid" : false,
      "close_approach_data" : [ {
        "close_approach_date" : "2003-05-08",
        "epoch_date_close_approach" : 1052377200000,
        "relative_velocity" : {
          "kilometers_per_second" : "8.4681911536",
          "kilometers_per_hour" : "30485.4881529201",
          "miles_per_hour" : "18942.4967914631"
        },
        "miss_distance" : {
          "astronomical" : "0.3126056139",
          "lunar" : "121.6035842896",
          "kilometers" : "46765136",
          "miles" : "29058508"
        },
        "orbiting_body" : "Earth"
      } ],
      "orbital_data" : {
        "orbit_id" : "11",
        "orbit_determination_date" : "2017-04-06 08:53:42",
        "orbit_uncertainty" : "6",
        "minimum_orbit_intersection" : ".151816",
        "jupiter_tisserand_invariant" : "3.815",
        "epoch_osculation" : "2458000.5",
        "eccentricity" : ".39578209177839",
        "semi_major_axis" : "1.917834379130455",
        "inclination" : "8.797398191792166",
        "ascending_node_longitude" : "44.16692766538242",
        "orbital_period" : "970.0968092930916",
        "perihelion_distance" : "1.158789876873693",
        "perihelion_argument" : "176.8845023438697",
        "aphelion_distance" : "2.676878881387216",
        "perihelion_time" : "2457625.404454083304",
        "mean_anomaly" : "139.1968257564006",
        "mean_motion" : ".3710969838797136",
        "equinox" : "J2000"
      }
    }, {
      "links" : {
        "self" : "https://api.nasa.gov/neo/rest/v1/neo/3026912?api_key=t0TVs3DtDT2H8Oy2Zy8m2eVrNsAVKAexjcZXUckd"
      },
      "neo_reference_id" : "3026912",
      "name" : "(2000 AG6)",
      "nasa_jpl_url" : "http://ssd.jpl.nasa.gov/sbdb.cgi?sstr=3026912",
      "absolute_magnitude_h" : 25.3,
      "estimated_diameter" : {
        "kilometers" : {
          "estimated_diameter_min" : 0.0231502122,
          "estimated_diameter_max" : 0.0517654482
        },
        "meters" : {
          "estimated_diameter_min" : 23.150212221,
          "estimated_diameter_max" : 51.7654482198
        },
        "miles" : {
          "estimated_diameter_min" : 0.0143848705,
          "estimated_diameter_max" : 0.0321655483
        },
        "feet" : {
          "estimated_diameter_min" : 75.9521422633,
          "estimated_diameter_max" : 169.8341531374
        }
      },
      "is_potentially_hazardous_asteroid" : false,
      "close_approach_data" : [ {
        "close_approach_date" : "2003-05-08",
        "epoch_date_close_approach" : 1052377200000,
        "relative_velocity" : {
          "kilometers_per_second" : "5.7507562566",
          "kilometers_per_hour" : "20702.7225238214",
          "miles_per_hour" : "12863.8666704267"
        },
        "miss_distance" : {
          "astronomical" : "0.1754767835",
          "lunar" : "68.2604675293",
          "kilometers" : "26250954",
          "miles" : "16311587"
        },
        "orbiting_body" : "Earth"
      } ],
      "orbital_data" : {
        "orbit_id" : "11",
        "orbit_determination_date" : "2017-04-06 09:17:11",
        "orbit_uncertainty" : "5",
        "minimum_orbit_intersection" : ".00435013",
        "jupiter_tisserand_invariant" : "5.983",
        "epoch_osculation" : "2458000.5",
        "eccentricity" : ".1895232834965062",
        "semi_major_axis" : "1.01708776980344",
        "inclination" : "2.438015626453526",
        "ascending_node_longitude" : "282.9649755845822",
        "orbital_period" : "374.6589183614882",
        "perihelion_distance" : ".8243259560661537",
        "perihelion_argument" : "276.5882248799362",
        "aphelion_distance" : "1.209849583540727",
        "perihelion_time" : "2457991.831632532894",
        "mean_anomaly" : "8.329208608740746",
        "mean_motion" : ".9608739639093694",
        "equinox" : "J2000"
      }
    }, {
      "links" : {
        "self" : "https://api.nasa.gov/neo/rest/v1/neo/3770988?api_key=t0TVs3DtDT2H8Oy2Zy8m2eVrNsAVKAexjcZXUckd"
      },
      "neo_reference_id" : "3770988",
      "name" : "(2017 EH1)",
      "nasa_jpl_url" : "http://ssd.jpl.nasa.gov/sbdb.cgi?sstr=3770988",
      "absolute_magnitude_h" : 23.3,
      "estimated_diameter" : {
        "kilometers" : {
          "estimated_diameter_min" : 0.058150704,
          "estimated_diameter_max" : 0.130028927
        },
        "meters" : {
          "estimated_diameter_min" : 58.1507039646,
          "estimated_diameter_max" : 130.0289270043
        },
        "miles" : {
          "estimated_diameter_min" : 0.0361331611,
          "estimated_diameter_max" : 0.0807962044
        },
        "feet" : {
          "estimated_diameter_min" : 190.7831555951,
          "estimated_diameter_max" : 426.6041048727
        }
      },
      "is_potentially_hazardous_asteroid" : false,
      "close_approach_data" : [ {
        "close_approach_date" : "2003-05-08",
        "epoch_date_close_approach" : 1052377200000,
        "relative_velocity" : {
          "kilometers_per_second" : "9.390630259",
          "kilometers_per_hour" : "33806.2689325295",
          "miles_per_hour" : "21005.9008264376"
        },
        "miss_distance" : {
          "astronomical" : "0.2509149036",
          "lunar" : "97.6058959961",
          "kilometers" : "37536336",
          "miles" : "23323998"
        },
        "orbiting_body" : "Earth"
      } ],
      "orbital_data" : {
        "orbit_id" : "11",
        "orbit_determination_date" : "2017-04-06 08:19:41",
        "orbit_uncertainty" : "4",
        "minimum_orbit_intersection" : ".0301707",
        "jupiter_tisserand_invariant" : "6.634",
        "epoch_osculation" : "2458000.5",
        "eccentricity" : ".4341872361325464",
        "semi_major_axis" : ".8827707373749474",
        "inclination" : "4.320042882172798",
        "ascending_node_longitude" : "134.7222683648135",
        "orbital_period" : "302.9495554683795",
        "perihelion_distance" : ".499482950775429",
        "perihelion_argument" : "254.8374502566169",
        "aphelion_distance" : "1.266058523974466",
        "perihelion_time" : "2458043.003990665603",
        "mean_anomaly" : "309.4918003231265",
        "mean_motion" : "1.188316647117758",
        "equinox" : "J2000"
      }
    } ]
  }
}